OBJECT_NAME,OBJECT_ID,EPOCH,MEAN_MOTION,ECCENTRICITY,INCLINATION,RA_OF_ASC_NODE,ARG_OF_PERICENTER,MEAN_ANOMALY,EPHEMERIS_TYPE,CLASSIFICATION_TYPE,NORAD_CAT_ID,ELEMENT_SET_NO,REV_AT_EPOCH,BSTAR,MEAN_MOTION_DOT,MEAN_MOTION_DDOT
BEIDOU-3S IGSO-1S (C31),2015-019A,2026-07-02T19:12:21.705408,1.00680073,.00768606,49.1798,295.2769,219.1125,144.2493,0,U,40549,999,4123,0,-.19E-5,0
GPS BIIF-10 (PRN 08),2015-033A,2026-07-16T15:19:12.156096,2.00554636,.01153758,53.9601,265.8709,30.2943,330.4469,0,U,40730,999,8058,0,-.18E-6,0
BEIDOU-3S M2S (C58),2015-037A,2026-07-16T07:38:54.128256,1.86231871,.00094576,54.8432,301.0434,256.6613,103.2681,0,U,40748,999,7466,0,-.74E-6,0
BEIDOU-3S M1S (C57),2015-037B,2026-07-15T23:39:18.287712,1.86254817,.000274,54.8399,301.0417,63.1715,296.8904,0,U,40749,999,7466,0,-.72E-6,0
GSAT0206 (GALILEO 10),2015-045B,2026-07-16T18:52:25.756608,1.70473544,.00022629,54.9385,220.7865,327.7315,32.3020,0,U,40890,999,6754,0,.48E-6,0
BEIDOU-3S IGSO-2S (C56),2015-053A,2026-07-17T15:25:26.719968,1.00252524,.0066282,49.1745,258.4175,193.2835,168.3012,0,U,40938,999,3966,0,-.104E-5,0
GPS BIIF-11 (PRN 10),2015-062A,2026-07-17T04:35:59.208864,2.00566971,.01129317,56.9797,29.6561,230.8709,128.1572,0,U,41019,999,7843,0,-.8E-6,0
GSAT-15 (GAGAN/PRN 139),2015-065A,2026-07-17T15:25:41.695680,1.00272544,.00034868,0.1114,263.8469,175.0691,181.4646,0,U,41028,999,3910,0,-.267E-5,0
GSAT0209 (GALILEO 12),2015-079A,2026-07-16T22:54:53.935488,1.70473553,.00047235,55.8441,100.4450,356.6958,3.3383,0,U,41174,999,6528,0,-.27E-6,0
GSAT0208 (GALILEO 11),2015-079B,2026-07-14T19:53:24.793152,1.70473443,.00043604,55.8401,100.5005,357.6027,2.4215,0,U,41175,999,6566,0,-.28E-6,0
IRNSS-1E,2016-003A,2026-07-13T01:01:03.714240,1.00278688,.00189772,33.2887,59.3748,176.6620,181.8769,0,U,41241,999,3833,0,-.321E-5,0
GPS BIIF-12 (PRN 32),2016-007A,2026-07-17T06:47:23.575200,2.00575319,.00966299,55.5424,88.2660,247.5978,111.4306,0,U,41328,999,7644,0,-.28E-6,0
COSMOS 2514 (751),2016-008A,2026-07-17T07:37:40.861920,2.13102569,.0012377,65.0017,311.9725,201.4092,158.5591,0,U,41330,999,8126,0,-.66E-6,0
BEIDOU-2 IGSO-6 (C13),2016-021A,2026-06-26T02:38:38.671584,1.00258926,.0057558,60.2385,37.9495,231.0163,137.2672,0,U,41434,999,3757,0,-.145E-5,0
IRNSS-1G,2016-027A,2026-07-17T14:29:01.466016,1.00269634,.00059498,5.2686,96.7710,12.1833,173.3888,0,U,41469,999,3748,0,-.346E-5,0
GSAT0211 (GALILEO 14),2016-030A,2026-07-16T17:05:27.607776,1.70473723,.00034382,55.0897,220.8821,318.8981,41.1241,0,U,41549,999,6317,0,.49E-6,0
GSAT0210 (GALILEO 13),2016-030B,2026-07-16T23:15:53.165376,1.70473885,.00047215,55.0882,220.8733,246.2569,113.7400,0,U,41550,999,6317,0,.48E-6,0
BEIDOU-2 G7 (C03),2016-037A,2026-07-17T14:22:57.225216,1.00272216,.00059022,1.7937,69.5208,0.1301,192.0559,0,U,41586,999,719,0,-.363E-5,0
EUTELSAT 117 WEST B (WAAS/PRN 131),2016-038B,2026-07-17T14:25:40.287936,1.00273199,.00002529,0.0089,197.1371,310.6381,247.0771,0,U,41589,999,3696,0,-.21E-6,0
GSAT0207 (GALILEO 15),2016-069A,2026-07-15T11:43:03.764064,1.70473446,.00045678,55.5148,100.3030,339.1852,20.8267,0,U,41859,999,5988,0,-.27E-6,0
GSAT0212 (GALILEO 16),2016-069B,2026-07-14T18:07:16.719168,1.70473579,.00043837,55.5126,100.3182,15.0007,345.0382,0,U,41860,999,6012,0,-.28E-6,0
GSAT0213 (GALILEO 17),2016-069C,2026-07-13T08:41:54.440160,1.70474037,.00041264,55.5134,100.3648,318.6741,41.3115,0,U,41861,999,5996,0,-.31E-6,0
GSAT0214 (GALILEO 18),2016-069D,2026-07-14T02:17:14.544672,1.70473685,.00032961,55.5122,100.3371,333.1197,26.8847,0,U,41862,999,6010,0,-.3E-6,0
SES-15 (WAAS/PRN 133),2017-026A,2026-07-17T11:24:38.573280,1.00278439,.00008465,0.0275,322.3959,173.7365,201.1742,0,U,42709,999,773,0,.49E-6,0
QZS-2 (QZSS/PRN 194),2017-028A,2026-07-17T10:34:03.414720,1.00276175,.07572426,39.3835,242.7078,269.6258,83.8926,0,U,42738,999,793,0,-.149E-5,0
QZS-3 (QZSS/PRN 199),2017-048A,2026-07-17T13:39:38.744352,1.00271170,.00026246,0.0621,212.1155,274.5166,140.7035,0,U,42917,999,3256,0,-.357E-5,0
COSMOS 2522 (752),2017-055A,2026-07-17T03:43:51.179808,2.13101722,.00109177,64.0807,190.8642,240.8488,119.0385,0,U,42939,999,6861,0,.53E-6,0
QZS-4 (QZSS/PRN 195),2017-062A,2026-07-16T17:26:43.444608,1.00289937,.07472466,40.0906,343.1084,268.6115,83.6927,0,U,42965,999,3210,0,-.353E-5,0
BEIDOU-3 M1 (C19),2017-069A,2026-07-15T01:18:53.436096,1.86230827,.00092673,56.7163,62.1672,328.5335,31.4861,0,U,43001,999,5912,0,-.4E-6,0
BEIDOU-3 M2 (C20),2017-069B,2026-07-14T23:50:47.813280,1.86230602,.0008281,56.7151,62.2055,358.4251,1.6473,0,U,43002,999,5911,0,-.4E-6,0
GSAT0215 (GALILEO 19),2017-079A,2026-07-15T04:06:51.886368,1.70474281,.00038313,55.0676,220.7362,269.4103,90.6058,0,U,43055,999,5346,0,.59E-6,0
